{
  "norad_id": 67579,
  "name": "STARLINK-36571",
  "history": [
    {
      "epoch": "2026-03-28T22:00:01.999584Z",
      "apogee_km": 452.97849829982897,
      "perigee_km": 450.3204819935936,
      "latitude_deg": -71.73954813553011,
      "longitude_deg": 15.399206498769802,
      "height_km": 479.5116886307399,
      "semi_major_axis_km": 6829.786490146711,
      "eccentricity": 0.00019459,
      "inclination_deg": 97.2842,
      "raan_deg": 149.0781,
      "arg_perigee_deg": 89.68,
      "mean_anomaly_deg": 197.2714,
      "mean_motion_rev_day": 15.38126559
    },
    {
      "epoch": "2026-03-29T04:00:01.999584Z",
      "apogee_km": 456.13994149371683,
      "perigee_km": 453.43000463919816,
      "latitude_deg": -49.63059331598403,
      "longitude_deg": 74.14214582974364,
      "height_km": 475.30722749615154,
      "semi_major_axis_km": 6832.921973066457,
      "eccentricity": 0.0001983,
      "inclination_deg": 97.2841,
      "raan_deg": 149.3263,
      "arg_perigee_deg": 77.2393,
      "mean_anomaly_deg": 152.6662,
      "mean_motion_rev_day": 15.3706796
    },
    {
      "epoch": "2026-03-30T04:00:01.999584Z",
      "apogee_km": 466.6995576131567,
      "perigee_km": 464.63409761798266,
      "latitude_deg": -7.7115463789011525,
      "longitude_deg": -96.27728702562113,
      "height_km": 469.966174336931,
      "semi_major_axis_km": 6843.803827615569,
      "eccentricity": 0.0001509,
      "inclination_deg": 97.2842,
      "raan_deg": 150.3071,
      "arg_perigee_deg": 74.8733,
      "mean_anomaly_deg": 277.5419,
      "mean_motion_rev_day": 15.33403441
    },
    {
      "epoch": "2026-03-30T06:00:02.000160Z",
      "apogee_km": 466.6213329495886,
      "perigee_km": 464.51456681781656,
      "latitude_deg": 82.45074369022969,
      "longitude_deg": 126.30947034060608,
      "height_km": 478.09356895244713,
      "semi_major_axis_km": 6843.704949883702,
      "eccentricity": 0.00015392,
      "inclination_deg": 97.2843,
      "raan_deg": 150.3887,
      "arg_perigee_deg": 79.029,
      "mean_anomaly_deg": 13.1051,
      "mean_motion_rev_day": 15.33436673
    },
    {
      "epoch": "2026-03-30T14:00:03.000384Z",
      "apogee_km": 466.72403821361604,
      "perigee_km": 464.7279571317158,
      "latitude_deg": 48.43170155597513,
      "longitude_deg": -59.02772506861172,
      "height_km": 472.6955375676597,
      "semi_major_axis_km": 6843.862997672666,
      "eccentricity": 0.00014583,
      "inclination_deg": 97.2843,
      "raan_deg": 150.7169,
      "arg_perigee_deg": 85.7116,
      "mean_anomaly_deg": 45.4216,
      "mean_motion_rev_day": 15.33383555
    },
    {
      "epoch": "2026-03-30T20:00:01.999872Z",
      "apogee_km": 466.6152336524292,
      "perigee_km": 464.46276067780127,
      "latitude_deg": 69.07742282910733,
      "longitude_deg": 3.3168532303408296,
      "height_km": 476.46758891751136,
      "semi_major_axis_km": 6843.675997165115,
      "eccentricity": 0.00015726,
      "inclination_deg": 97.2843,
      "raan_deg": 150.9649,
      "arg_perigee_deg": 85.0483,
      "mean_anomaly_deg": 345.2008,
      "mean_motion_rev_day": 15.33446404
    },
    {
      "epoch": "2026-03-31T20:00:01.999008Z",
      "apogee_km": 466.51186829425205,
      "perigee_km": 464.5053114073071,
      "latitude_deg": -7.152137669213929,
      "longitude_deg": -158.1758897567165,
      "height_km": 470.0257553290396,
      "semi_major_axis_km": 6843.645589850779,
      "eccentricity": 0.0001466,
      "inclination_deg": 97.2839,
      "raan_deg": 151.9514,
      "arg_perigee_deg": 85.5643,
      "mean_anomaly_deg": 101.4605,
      "mean_motion_rev_day": 15.33456624
    },
    {
      "epoch": "2026-04-01T20:00:01.999008Z",
      "apogee_km": 466.5068329791984,
      "perigee_km": 464.4865923072257,
      "latitude_deg": -55.74008716320817,
      "longitude_deg": 33.494345970121394,
      "height_km": 488.0048667243102,
      "semi_major_axis_km": 6843.633712643212,
      "eccentricity": 0.0001476,
      "inclination_deg": 97.2845,
      "raan_deg": 152.9369,
      "arg_perigee_deg": 89.7656,
      "mean_anomaly_deg": 214.0583,
      "mean_motion_rev_day": 15.33460616
    },
    {
      "epoch": "2026-04-02T20:00:01.999008Z",
      "apogee_km": 466.57509597447824,
      "perigee_km": 464.47682891019394,
      "latitude_deg": 59.93253320748271,
      "longitude_deg": 10.05290005799449,
      "height_km": 474.85070206579314,
      "semi_major_axis_km": 6843.662962442336,
      "eccentricity": 0.0001533,
      "inclination_deg": 97.2845,
      "raan_deg": 153.9221,
      "arg_perigee_deg": 90.6479,
      "mean_anomaly_deg": 330.0045,
      "mean_motion_rev_day": 15.33450785
    },
    {
      "epoch": "2026-04-02T22:00:01.999584Z",
      "apogee_km": 466.72175316837274,
      "perigee_km": 464.6807837199576,
      "latitude_deg": 19.395732642609293,
      "longitude_deg": 175.30126237100203,
      "height_km": 468.0079212541048,
      "semi_major_axis_km": 6843.838268444165,
      "eccentricity": 0.00014911,
      "inclination_deg": 97.284,
      "raan_deg": 154.0031,
      "arg_perigee_deg": 89.0635,
      "mean_anomaly_deg": 71.3602,
      "mean_motion_rev_day": 15.33391866
    },
    {
      "epoch": "2026-04-03T17:39:47.943648Z",
      "apogee_km": 467.1884166871623,
      "perigee_km": 464.181241375486,
      "latitude_deg": -3.615364097444006e-05,
      "longitude_deg": 57.79513183330663,
      "height_km": 468.6045088875606,
      "semi_major_axis_km": 6843.821829031324,
      "eccentricity": 0.0002197,
      "inclination_deg": 97.284,
      "raan_deg": 154.8109,
      "arg_perigee_deg": 82.7909,
      "mean_anomaly_deg": 277.3583,
      "mean_motion_rev_day": 15.33397391
    },
    {
      "epoch": "2026-04-04T17:09:18.604224Z",
      "apogee_km": 466.5679107338201,
      "perigee_km": 464.4203792805174,
      "latitude_deg": -4.535095081149052e-05,
      "longitude_deg": 65.41750389867491,
      "height_km": 468.5876857599432,
      "semi_major_axis_km": 6843.631145007169,
      "eccentricity": 0.0001569,
      "inclination_deg": 97.2837,
      "raan_deg": 155.7758,
      "arg_perigee_deg": 89.145,
      "mean_anomaly_deg": 270.9972,
      "mean_motion_rev_day": 15.33461479
    },
    {
      "epoch": "2026-04-05T10:22:57.652608Z",
      "apogee_km": 466.79454505288777,
      "perigee_km": 464.3041275951,
      "latitude_deg": -5.434907665466331e-07,
      "longitude_deg": 167.00428672070697,
      "height_km": 468.6107772314733,
      "semi_major_axis_km": 6843.686336323994,
      "eccentricity": 0.00018195,
      "inclination_deg": 97.2845,
      "raan_deg": 156.4828,
      "arg_perigee_deg": 87.8077,
      "mean_anomaly_deg": 272.3374,
      "mean_motion_rev_day": 15.33442929
    },
    {
      "epoch": "2026-04-05T16:38:50.070048Z",
      "apogee_km": 466.84199623385757,
      "perigee_km": 464.2673994171355,
      "latitude_deg": -2.0372628297535144e-05,
      "longitude_deg": 73.035606419992,
      "height_km": 468.6813181419931,
      "semi_major_axis_km": 6843.691697825497,
      "eccentricity": 0.0001881,
      "inclination_deg": 97.284,
      "raan_deg": 156.7398,
      "arg_perigee_deg": 90.7845,
      "mean_anomaly_deg": 269.3613,
      "mean_motion_rev_day": 15.33441127
    }
  ]
}